{
"type": "FeatureCollection",
"name": "Roads111",
"crs": { "type": "name", "properties": { "name": "urn:ogc:def:crs:EPSG::32632" } },
"features": [
{ "type": "Feature", "properties": { "Names": "Ikpa Road", "source": null, "target": null }, "geometry": { "type": "MultiLineString", "coordinates": [ [ [ 380677.63522952189669, 556782.568637986201793 ], [ 380681.467722545145079, 556829.983762987656519 ], [ 380667.52707406214904, 556937.269491999642923 ], [ 380648.917158954543993, 557066.685883647180162 ], [ 380628.673351409262978, 557212.81383042037487 ], [ 380595.650032319303136, 557419.695130405365489 ], [ 380576.901944217563141, 557533.930465235840529 ], [ 380544.506225967896171, 557697.287127247196622 ], [ 380537.534735381777864, 557717.448750662733801 ] ], [ [ 380537.703719744982664, 557716.960045973071828 ], [ 380585.92108880111482, 557760.456238305428997 ], [ 380645.565389984694775, 557804.130873190937564 ], [ 380727.198462434811518, 557872.782489101868123 ], [ 380787.908346247219015, 557928.9620788769098 ], [ 380824.293145820847712, 557981.187662166077644 ], [ 380849.414956411987077, 558011.357429887633771 ], [ 380879.830557168752421, 558084.230902790674008 ], [ 380916.538146640756167, 558171.678727071033791 ], [ 380939.516962701221928, 558228.479582841740921 ], [ 380977.285025594232138, 558312.847496103844605 ], [ 381012.940182362101041, 558383.668368705431931 ] ] ] } },
{ "type": "Feature", "properties": { "Names": "Udo Ekong Street", "source": null, "target": null }, "geometry": { "type": "MultiLineString", "coordinates": [ [ [ 380537.703719744982664, 557716.960045973071828 ], [ 380456.058334930043202, 557702.795157650718465 ], [ 380411.504176967893727, 557692.248447939287871 ], [ 380369.84336648543831, 557674.938488115905784 ], [ 380320.433833974297158, 557655.710391887463629 ], [ 380240.04226082022069, 557636.533686190494336 ], [ 380184.841137962474022, 557627.935750167234801 ], [ 380097.710611056536436, 557631.942324595642276 ], [ 379997.99522491695825, 557636.935411730315536 ], [ 379960.229453556530643, 557633.136170199839398 ], [ 379906.481295047444291, 557626.432291232864372 ], [ 379826.936016228049994, 557612.146342023857869 ], [ 379814.553403223282658, 557613.049062913865782 ] ] ] } },
{ "type": "Feature", "properties": { "Names": null, "source": null, "target": null }, "geometry": { "type": "MultiLineString", "coordinates": [ [ [ 379814.378511986986268, 557613.061812903033569 ], [ 379829.391451035044156, 557553.700058315880597 ], [ 379839.964460773335304, 557507.338521070661955 ], [ 379846.656697359518148, 557456.155947703286074 ], [ 379853.360188452235889, 557411.731851273099892 ], [ 379845.568096469622105, 557383.745339220040478 ], [ 379829.990322595520411, 557331.634299447992817 ], [ 379814.25014916958753, 557292.552332321065478 ], [ 379802.643255854258314, 557252.503650985192508 ], [ 379786.992332252091728, 557210.858925804845057 ], [ 379774.906169280700851, 557183.333951455890201 ], [ 379762.805902874504682, 557147.3335929333698 ], [ 379751.365675004781224, 557104.161312457523309 ] ] ] } },
{ "type": "Feature", "properties": { "Names": "Annex Link Road", "source": null, "target": null }, "geometry": { "type": "MultiLineString", "coordinates": [ [ [ 379924.636798182909843, 557042.14950788335409 ], [ 379942.995620570669416, 557079.956027936073951 ], [ 379956.161353560397401, 557110.845498659648001 ], [ 379989.005581737030298, 557145.863440612680279 ], [ 380021.237884585978463, 557171.371229466283694 ], [ 380070.785907417710405, 557214.08930423296988 ], [ 380128.073412505211309, 557250.850081024342217 ], [ 380178.16417392634321, 557283.508049339521676 ], [ 380239.863544185122009, 557322.588381237117574 ], [ 380300.977739816880785, 557356.546248972066678 ], [ 380360.594935956352856, 557383.545265830121934 ], [ 380421.241684511245694, 557401.162633761065081 ], [ 380459.930374394694809, 557412.563046243391 ], [ 380504.927729690971319, 557446.881890328251757 ], [ 380527.939475341292564, 557458.308259877376258 ], [ 380564.611290818313137, 557470.818022375344299 ], [ 380586.122112601762637, 557477.750312057556584 ] ] ] } },
{ "type": "Feature", "properties": { "Names": null, "source": null, "target": null }, "geometry": { "type": "MultiLineString", "coordinates": [ [ [ 380275.164957037603017, 557342.203466262901202 ], [ 380236.284579732862767, 557533.826492249034345 ] ] ] } },
{ "type": "Feature", "properties": { "Names": null, "source": null, "target": null }, "geometry": { "type": "MultiLineString", "coordinates": [ [ [ 380261.280225320369937, 557408.115832978161052 ], [ 380065.114706977910828, 557380.193315141019411 ] ] ] } },
{ "type": "Feature", "properties": { "Names": null, "source": null, "target": null }, "geometry": { "type": "MultiLineString", "coordinates": [ [ [ 380253.725342351594009, 557455.406233860179782 ], [ 380212.075927128666081, 557448.64968590461649 ], [ 380170.61507321690442, 557452.700025596073829 ], [ 380160.209599583176896, 557522.375981621560641 ] ] ] } },
{ "type": "Feature", "properties": { "Names": null, "source": null, "target": null }, "geometry": { "type": "MultiLineString", "coordinates": [ [ [ 380074.329117675486486, 557461.450600262032822 ], [ 380070.041021275683306, 557508.628809066140093 ], [ 380220.720076601952314, 557531.601520635304041 ], [ 380236.733783806790598, 557533.752098265802488 ], [ 380346.650098531739786, 557550.986970885889605 ], [ 380380.130542375787627, 557553.834358955849893 ], [ 380380.15097069949843, 557566.171368610928766 ], [ 380409.278232634416781, 557577.008769061532803 ], [ 380478.698570222419221, 557587.148449573549442 ], [ 380521.988669138227124, 557590.673824043013155 ] ] ] } },
{ "type": "Feature", "properties": { "Names": null, "source": null, "target": null }, "geometry": { "type": "MultiLineString", "coordinates": [ [ [ 380380.130542368569877, 557553.834358951076865 ], [ 380387.10602936684154, 557525.62070674833376 ], [ 380391.195785589399748, 557496.035529349464923 ], [ 380394.421450885478407, 557474.390929345274344 ], [ 380404.226672456483357, 557475.871633232221939 ], [ 380415.868762022349983, 557399.692908084718511 ] ] ] } },
{ "type": "Feature", "properties": { "Names": null, "source": null, "target": null }, "geometry": { "type": "MultiLineString", "coordinates": [ [ [ 380253.725342351594009, 557455.406233860179782 ], [ 380396.544535913271829, 557475.117908548563719 ] ] ] } },
{ "type": "Feature", "properties": { "Names": null, "source": null, "target": null }, "geometry": { "type": "MultiLineString", "coordinates": [ [ [ 380385.581860445439816, 557531.743377136415802 ], [ 380469.91124502371531, 557544.056140512810089 ], [ 380491.05557769164443, 557547.926406395738013 ] ] ] } },
{ "type": "Feature", "properties": { "Names": null, "source": null, "target": null }, "geometry": { "type": "MultiLineString", "coordinates": [ [ [ 380513.399204906716477, 557451.088358676875941 ], [ 380505.774431922240183, 557479.015646679326892 ], [ 380499.865076001558919, 557493.394365238025784 ], [ 380496.094267695210874, 557519.602796504623257 ], [ 380491.05557769164443, 557547.926406395738013 ] ] ] } },
{ "type": "Feature", "properties": { "Names": null, "source": null, "target": null }, "geometry": { "type": "MultiLineString", "coordinates": [ [ [ 380503.366283644048963, 557484.875182148301974 ], [ 380429.066935349139385, 557478.719936033128761 ], [ 380403.634366951300763, 557475.803716760245152 ] ] ] } },
{ "type": "Feature", "properties": { "Names": null, "source": null, "target": null }, "geometry": { "type": "MultiLineString", "coordinates": [ [ [ 380357.372072311351076, 557382.08571634220425 ], [ 380355.370045814896002, 557434.765195195446722 ], [ 380349.841974784678314, 557468.181528032873757 ] ] ] } },
{ "type": "Feature", "properties": { "Names": null, "source": null, "target": null }, "geometry": { "type": "MultiLineString", "coordinates": [ [ [ 380070.04102126986254, 557508.628809065092355 ], [ 380065.191456642758567, 557551.020495785167441 ] ] ] } },
{ "type": "Feature", "properties": { "Names": null, "source": null, "target": null }, "geometry": { "type": "MultiLineString", "coordinates": [ [ [ 380202.970045871741604, 557299.220058593316935 ], [ 380232.235913546464872, 557195.563509034225717 ], [ 380245.190831575542688, 557119.887905893614516 ] ] ] } },
{ "type": "Feature", "properties": { "Names": null, "source": null, "target": null }, "geometry": { "type": "MultiLineString", "coordinates": [ [ [ 380275.164957037603017, 557342.203466262901202 ], [ 380282.988553237984888, 557301.569143989705481 ], [ 380290.750270124000963, 557249.381023794645444 ] ] ] } },
{ "type": "Feature", "properties": { "Names": null, "source": null, "target": null }, "geometry": { "type": "MultiLineString", "coordinates": [ [ [ 380459.930374394694809, 557412.563046243391 ], [ 380450.53615431021899, 557374.337143309880048 ], [ 380431.295748797245324, 557340.455067737377249 ], [ 380416.385184131737333, 557288.304493840434588 ], [ 380400.570936814765446, 557217.024490839219652 ] ] ] } },
{ "type": "Feature", "properties": { "Names": null, "source": null, "target": null }, "geometry": { "type": "MultiLineString", "coordinates": [ [ [ 380527.591065358661581, 557458.135258551919833 ], [ 380515.22060060192598, 557418.277226793463342 ], [ 380499.789803824853152, 557368.558749465853907 ] ] ] } },
{ "type": "Feature", "properties": { "Names": null, "source": null, "target": null }, "geometry": { "type": "MultiLineString", "coordinates": [ [ [ 380357.372072311409283, 557382.085716360947117 ], [ 380367.277677096892148, 557361.626236408017576 ], [ 380372.882089151418768, 557352.276562422863208 ] ] ] } },
{ "type": "Feature", "properties": { "Names": "Ekpanya Street", "source": null, "target": null }, "geometry": { "type": "MultiLineString", "coordinates": [ [ [ 380601.643857967923395, 557382.906598804402165 ], [ 380575.372513645910658, 557317.275101001840085 ], [ 380563.575955364038236, 557275.910404423833825 ], [ 380540.920662810502108, 557214.771212451974861 ], [ 380511.911497671680991, 557130.251455111661926 ], [ 380494.687003944534808, 557079.899163648020476 ], [ 380470.190103945787996, 556996.271602656575851 ], [ 380428.116794716450386, 556867.234899117378518 ] ] ] } },
{ "type": "Feature", "properties": { "Names": null, "source": null, "target": null }, "geometry": { "type": "MultiLineString", "coordinates": [ [ [ 379983.669606469047721, 557140.174314222182147 ], [ 380010.067274291650392, 557117.375315624289215 ] ] ] } },
{ "type": "Feature", "properties": { "Names": "Main Entrance", "source": null, "target": null }, "geometry": { "type": "MultiLineString", "coordinates": [ [ [ 380576.768890866835136, 557534.601389540825039 ], [ 380606.608898143575061, 557581.80254880269058 ], [ 380638.767427381768357, 557591.36539781303145 ], [ 380711.120106784394011, 557610.477862642845139 ], [ 380766.89613427472068, 557624.935960225528106 ] ], [ [ 380567.108216427033767, 557583.315591874648817 ], [ 380690.552840015152469, 557614.02286898298189 ], [ 380752.826576486695558, 557630.857405748334713 ], [ 380764.44068475975655, 557633.349200236727484 ] ] ] } },
{ "type": "Feature", "properties": { "Names": null, "source": null, "target": null }, "geometry": { "type": "MultiLineString", "coordinates": [ [ [ 380672.850462195347063, 557827.076996179996058 ], [ 380704.458582857332658, 557810.448859957745299 ], [ 380721.38705099048093, 557796.788691211491823 ], [ 380731.20524350553751, 557782.049695052555762 ], [ 380741.512614867184311, 557732.411456260713749 ], [ 380751.270499595324509, 557681.138265758636408 ], [ 380765.402864223986398, 557629.857859088340774 ], [ 380776.823716958286241, 557592.214135199086741 ], [ 380928.610240504844114, 557360.119593090144917 ] ] ] } },
{ "type": "Feature", "properties": { "Names": null, "source": null, "target": null }, "geometry": { "type": "MultiLineString", "coordinates": [ [ [ 381076.295539270679001, 557381.266804315848276 ], [ 381052.370259116753004, 557388.844422601861879 ], [ 381030.247085608309135, 557388.938633225974627 ], [ 381005.894903347827494, 557384.521107770618983 ], [ 380943.411912075360306, 557366.736503013060428 ], [ 380928.039671625941992, 557360.259651830419898 ], [ 380900.552464051637799, 557344.123410674510524 ], [ 380880.935738116619177, 557305.159646246698685 ], [ 380850.828869096527342, 557228.516946542542428 ], [ 380824.636738317611162, 557154.467533786781132 ], [ 380778.789163556124549, 557018.056760755833238 ], [ 380731.640103112906218, 556882.948001184966415 ], [ 380724.127269325777888, 556867.96174101147335 ] ] ] } },
{ "type": "Feature", "properties": { "Names": "Ikot Ekpene Road", "source": null, "target": null }, "geometry": { "type": "MultiLineString", "coordinates": [ [ [ 381170.498413215507753, 556612.690598757006228 ], [ 381059.894838209671434, 556648.187429529731162 ], [ 380879.967722817265894, 556710.389059248263948 ], [ 380698.665837805892807, 556775.344834768562578 ], [ 380524.3024134185398, 556835.237167729996145 ], [ 380297.955628070631064, 556912.67634157766588 ], [ 380075.134796166152228, 556989.251511236536317 ], [ 379703.041007491294295, 557121.312521472224034 ], [ 379459.70666593988426, 557206.292235197266564 ], [ 379343.820229832374025, 557250.239967449684627 ] ], [ [ 379343.592185910209082, 557243.433620805386454 ], [ 379436.807444678153843, 557207.816216141683981 ], [ 379530.609613475215156, 557174.523341391468421 ], [ 379602.854709042818286, 557148.823947127209976 ], [ 379728.827159959007986, 557101.576231352286413 ], [ 379819.803571294527501, 557071.449854315491393 ], [ 379935.327478195540607, 557031.047957737580873 ], [ 380120.034849711810239, 556968.416080315248109 ], [ 380250.339426109218039, 556925.309599246596918 ], [ 380372.580746260122396, 556882.88688784558326 ], [ 380559.075449467170984, 556818.894209193647839 ], [ 380669.438949352072086, 556779.309711110661738 ], [ 380869.489489752682857, 556708.613443778362125 ], [ 380990.615118081797846, 556667.579706687130965 ], [ 381062.037386669078842, 556639.623018954880536 ], [ 381161.303997230250388, 556607.529751190799288 ] ] ] } },
{ "type": "Feature", "properties": { "Names": null, "source": null, "target": null }, "geometry": { "type": "MultiLineString", "coordinates": [ [ [ 379814.553403223457281, 557613.049062908394262 ], [ 379786.457233482273296, 557615.097346197464503 ], [ 379737.337002948799636, 557638.248310325201601 ], [ 379712.784100871998817, 557654.149270794354379 ], [ 379676.659671981469728, 557667.185867852997035 ], [ 379649.19588675169507, 557671.55710152501706 ], [ 379605.786986309394706, 557651.443889301968738 ], [ 379566.725201872177422, 557637.090752698131837 ], [ 379516.082222503609955, 557614.10599484690465 ], [ 379476.998740601877216, 557586.77649999933783 ], [ 379424.895403387316037, 557555.143271110020578 ] ] ] } },
{ "type": "Feature", "properties": { "Names": "Udo Ette Street", "source": null, "target": null }, "geometry": { "type": "MultiLineString", "coordinates": [ [ [ 380435.880897051421925, 557698.018819141783752 ], [ 380384.258364743785933, 557720.818454654538073 ], [ 380252.59616895520594, 557779.05411710171029 ], [ 380116.663361104845535, 557841.563149228692055 ], [ 380088.456369584891945, 557857.820760993985459 ], [ 380038.002102647791617, 557924.221217892132699 ], [ 379993.262651338765863, 557980.180548197124153 ], [ 379955.498111803783104, 558017.965702466201037 ], [ 379885.50575544295134, 558053.010261709103361 ] ] ] } },
{ "type": "Feature", "properties": { "Names": "Itu Road", "source": null, "target": null }, "geometry": { "type": "MultiLineString", "coordinates": [ [ [ 380537.534735384397209, 557717.44875065900851 ], [ 380518.501628403260838, 557772.49277587630786 ], [ 380475.125968992826529, 557907.934407244552858 ], [ 380458.643193509313278, 557971.374582284130156 ], [ 380435.815857542620506, 558065.171520068193786 ], [ 380422.330155241535977, 558122.491112617077306 ], [ 380408.648243108938914, 558155.752397120115347 ], [ 380387.163354934426025, 558178.821928795427084 ], [ 380363.049377882445697, 558199.278337533702143 ], [ 380357.812871615460608, 558207.139494329458103 ] ] ] } },
{ "type": "Feature", "properties": { "Names": null, "source": null, "target": null }, "geometry": { "type": "MultiLineString", "coordinates": [ [ [ 380776.729043548170011, 557012.153342603007331 ], [ 380753.594056566362269, 557022.008957509300672 ], [ 380742.935986347321887, 557032.672409354709089 ], [ 380736.548169333080295, 557043.328820071648806 ], [ 380730.59651078179013, 557059.520367598277517 ], [ 380732.327790290291887, 557073.570067405235022 ], [ 380736.631052104465198, 557093.577214815653861 ], [ 380745.193320132093504, 557106.763976715272292 ], [ 380761.012193005124573, 557118.235430548898876 ], [ 380774.686809096485376, 557124.174568290938623 ], [ 380791.345678415091243, 557127.127942713093944 ], [ 380807.566990406368859, 557123.694518119096756 ], [ 380813.445682538789697, 557121.170633742818609 ] ] ] } },
{ "type": "Feature", "properties": { "Names": null, "source": null, "target": null }, "geometry": { "type": "MultiLineString", "coordinates": [ [ [ 380730.974318673659582, 557063.771990522393025 ], [ 380721.329106762656011, 557065.291152635123581 ], [ 380713.492837186786346, 557066.807331756339408 ], [ 380703.246132972999476, 557069.229439710034057 ], [ 380696.920788168325089, 557072.847680100356229 ], [ 380691.201401248108596, 557078.268823199323379 ], [ 380686.687568139052019, 557092.737239173729904 ] ] ] } },
{ "type": "Feature", "properties": { "Names": null, "source": null, "target": null }, "geometry": { "type": "MultiLineString", "coordinates": [ [ [ 380740.37152539845556, 557036.950544685125351 ], [ 380730.918280429963488, 557029.798601130372845 ], [ 380723.971600642020348, 557022.29380233772099 ], [ 380724.854748090030625, 557009.364383363281377 ], [ 380727.249812554102391, 556999.138323322637007 ], [ 380727.798744063766208, 556966.366537514957599 ], [ 380725.192587606434245, 556942.423946151509881 ], [ 380717.14567192690447, 556929.809003319707699 ], [ 380716.678439025185071, 556911.505140782915987 ] ] ] } },
{ "type": "Feature", "properties": { "Names": null, "source": null, "target": null }, "geometry": { "type": "MultiLineString", "coordinates": [ [ [ 380741.788816170068458, 556912.029780695447698 ], [ 380716.678439025185071, 556911.505140782915987 ], [ 380671.201820140180644, 556908.988984346389771 ] ] ] } },
{ "type": "Feature", "properties": { "Names": null, "source": null, "target": null }, "geometry": { "type": "MultiLineString", "coordinates": [ [ [ 380776.729043548170011, 557012.153342603007331 ], [ 380802.786186455981806, 557002.576983865932561 ], [ 380851.284439097275026, 556986.367200473090634 ], [ 380900.654156919103116, 556968.412251001922414 ], [ 380916.824078716919757, 556965.33402859128546 ], [ 380926.589189586229622, 556968.679252996807918 ], [ 380937.01219541154569, 556977.558670974918641 ], [ 380946.461828166735359, 556997.31328880682122 ], [ 380950.952657973975874, 557015.593307450646535 ], [ 380949.0148706996697, 557042.780488854390569 ], [ 380948.541207044327166, 557056.126137171289884 ], [ 380940.14470230898587, 557073.933120927889831 ], [ 380923.47936522110831, 557083.528415805543773 ], [ 380884.283551149768755, 557102.265267583657987 ], [ 380813.683168375224341, 557121.877228377736174 ] ] ] } },
{ "type": "Feature", "properties": { "Names": null, "source": null, "target": null }, "geometry": { "type": "MultiLineString", "coordinates": [ [ [ 380876.550609117664862, 557104.413384366896935 ], [ 380863.806419171160087, 557073.767807950498536 ] ] ] } },
{ "type": "Feature", "properties": { "Names": null, "source": null, "target": null }, "geometry": { "type": "MultiLineString", "coordinates": [ [ [ 380840.743322639958933, 557114.360224001458846 ], [ 380835.945757171488367, 557095.309729132684879 ] ] ] } },
{ "type": "Feature", "properties": { "Names": null, "source": null, "target": null }, "geometry": { "type": "MultiLineString", "coordinates": [ [ [ 380904.750010096584447, 557092.481641909689642 ], [ 380884.926055214891676, 557041.501083854353055 ], [ 380868.640130759566091, 556998.050968228490092 ], [ 380843.390744917152915, 556989.005541573627852 ] ] ] } },
{ "type": "Feature", "properties": { "Names": null, "source": null, "target": null }, "geometry": { "type": "MultiLineString", "coordinates": [ [ [ 380888.288714296300896, 556972.909353606286459 ], [ 380905.369209197349846, 557012.209330692770891 ], [ 380918.785292395565193, 557050.88436301483307 ], [ 380917.548585870186798, 557060.040558888111264 ], [ 380923.842529898742214, 557083.319318729802035 ] ] ] } },
{ "type": "Feature", "properties": { "Names": null, "source": null, "target": null }, "geometry": { "type": "MultiLineString", "coordinates": [ [ [ 380814.989984132524114, 556998.498051118222065 ], [ 380803.094590767927002, 556983.757240709732287 ] ] ] } },
{ "type": "Feature", "properties": { "Names": null, "source": null, "target": null }, "geometry": { "type": "MultiLineString", "coordinates": [ [ [ 380826.315619390225038, 556994.712633138988167 ], [ 380819.465799849305768, 556974.633616577135399 ] ] ] } },
{ "type": "Feature", "properties": { "Names": null, "source": null, "target": null }, "geometry": { "type": "MultiLineString", "coordinates": [ [ [ 380858.8102550135809, 556983.630182806751691 ], [ 380858.960082884994335, 556973.967239034362137 ] ] ] } },
{ "type": "Feature", "properties": { "Names": null, "source": null, "target": null }, "geometry": { "type": "MultiLineString", "coordinates": [ [ [ 380888.288714296300896, 556972.909353606286459 ], [ 380887.566409224062227, 556941.782381408382207 ], [ 380887.540541875991039, 556926.076395383104682 ], [ 380856.031409409304615, 556920.518999787047505 ], [ 380823.398505184217356, 556915.711374890059233 ], [ 380820.788918923819438, 556925.06450342561584 ], [ 380808.042658109567128, 556927.329227632260881 ] ] ] } },
{ "type": "Feature", "properties": { "Names": null, "source": null, "target": null }, "geometry": { "type": "MultiLineString", "coordinates": [ [ [ 380892.169175913848449, 556877.195984808611684 ], [ 380804.272423950722441, 556893.171464805491269 ], [ 380767.657983210112434, 556905.409264910151251 ], [ 380742.723079022835009, 556914.706970856641419 ] ] ] } },
{ "type": "Feature", "properties": { "Names": null, "source": null, "target": null }, "geometry": { "type": "MultiLineString", "coordinates": [ [ [ 380727.085975454363506, 556873.863633161410689 ], [ 380754.041648547223303, 556852.426924310158938 ], [ 380801.849352212273516, 556834.810197037877515 ], [ 380825.043374300177675, 556822.144672650960274 ], [ 380822.906352942925878, 556806.013300468679518 ], [ 380818.665825915057212, 556794.094496254459955 ], [ 380807.387805260950699, 556775.639337239554152 ], [ 380804.95675782521721, 556771.043038437957875 ] ] ] } },
{ "type": "Feature", "properties": { "Names": null, "source": null, "target": null }, "geometry": { "type": "MultiLineString", "coordinates": [ [ [ 380825.0412796321325, 556822.145816481905058 ], [ 380843.337311930663418, 556824.219086731784046 ], [ 380852.498723741213325, 556834.025234487024136 ], [ 380853.944970391981769, 556857.874431217438541 ], [ 380845.549445360898972, 556885.948942928458564 ] ] ] } },
{ "type": "Feature", "properties": { "Names": null, "source": null, "target": null }, "geometry": { "type": "MultiLineString", "coordinates": [ [ [ 380829.894955038442276, 556888.655034344061278 ], [ 380828.467108709795866, 556871.800254814559594 ], [ 380826.483337277895771, 556853.874735109275207 ], [ 380825.040106549335178, 556822.120005926582962 ] ] ] } },
{ "type": "Feature", "properties": { "Names": null, "source": null, "target": null }, "geometry": { "type": "MultiLineString", "coordinates": [ [ [ 380727.085975454363506, 556873.863633161410689 ], [ 380717.910272444132715, 556875.251009737490676 ] ] ] } },
{ "type": "Feature", "properties": { "Names": null, "source": null, "target": null }, "geometry": { "type": "MultiLineString", "coordinates": [ [ [ 380846.881857157975901, 556828.013079566298984 ], [ 380853.145467912720051, 556824.33279694232624 ], [ 380858.698244476923719, 556819.450518101919442 ], [ 380857.678886383539066, 556814.411024988163263 ], [ 380856.149295575509313, 556806.515708051505499 ] ] ] } },
{ "type": "Feature", "properties": { "Names": null, "source": null, "target": null }, "geometry": { "type": "MultiLineString", "coordinates": [ [ [ 380819.057886492344551, 556794.814072157838382 ], [ 380831.017338046338409, 556791.937705499236472 ], [ 380829.999915679218248, 556788.074482682859525 ], [ 380832.855161840561777, 556782.356450518826023 ], [ 380833.734438256593421, 556780.497242640238255 ], [ 380846.396982803882565, 556775.452647335361689 ] ] ] } },
{ "type": "Feature", "properties": { "Names": null, "source": null, "target": null }, "geometry": { "type": "MultiLineString", "coordinates": [ [ [ 380807.211583354568575, 556775.306160436361097 ], [ 380816.551418382616248, 556770.53859483380802 ], [ 380820.949944653140847, 556768.049858515616506 ] ] ] } },
{ "type": "Feature", "properties": { "Names": null, "source": null, "target": null }, "geometry": { "type": "MultiLineString", "coordinates": [ [ [ 380807.211583354568575, 556775.306160436361097 ], [ 380793.089776067994535, 556779.302928638993762 ], [ 380763.135156625474337, 556788.477801123866811 ], [ 380745.299276944249868, 556793.754368016496301 ] ] ] } },
{ "type": "Feature", "properties": { "Names": null, "source": null, "target": null }, "geometry": { "type": "MultiLineString", "coordinates": [ [ [ 380742.894924596068449, 556861.291440191795118 ], [ 380733.467244101921096, 556832.785418287385255 ], [ 380732.544241270050406, 556827.996048739529215 ], [ 380756.092364160926081, 556818.375444304198027 ], [ 380769.354223063681275, 556814.018968514399603 ], [ 380767.743766819708981, 556808.546319114859216 ] ] ] } },
{ "type": "Feature", "properties": { "Names": null, "source": null, "target": null }, "geometry": { "type": "MultiLineString", "coordinates": [ [ [ 380769.354223063681275, 556814.018968514399603 ], [ 380798.622127726906911, 556804.61709036573302 ] ] ] } },
{ "type": "Feature", "properties": { "Names": null, "source": null, "target": null }, "geometry": { "type": "MultiLineString", "coordinates": [ [ [ 380820.949944653140847, 556768.049858515616506 ], [ 380822.336495058203582, 556771.43961650354322 ] ] ] } },
{ "type": "Feature", "properties": { "Names": null, "source": null, "target": null }, "geometry": { "type": "MultiLineString", "coordinates": [ [ [ 380820.949944653140847, 556768.049858515616506 ], [ 380819.438464890758041, 556764.633506756741554 ] ] ] } },
{ "type": "Feature", "properties": { "Names": null, "source": null, "target": null }, "geometry": { "type": "MultiLineString", "coordinates": [ [ [ 380831.017338046338409, 556791.937705499236472 ], [ 380836.599724893108942, 556790.167189275613055 ] ] ] } },
{ "type": "Feature", "properties": { "Names": null, "source": null, "target": null }, "geometry": { "type": "MultiLineString", "coordinates": [ [ [ 380852.693626497755758, 556837.239261181442998 ], [ 380860.595269119541626, 556834.691830488969572 ] ] ] } },
{ "type": "Feature", "properties": { "Names": null, "source": null, "target": null }, "geometry": { "type": "MultiLineString", "coordinates": [ [ [ 380723.785431502212305, 557022.813247101963498 ], [ 380714.909519957320299, 557029.272816923679784 ], [ 380700.780477665946819, 557034.532630769535899 ], [ 380698.788057329889853, 557051.051048007328063 ], [ 380696.383729507913813, 557062.736448554089293 ], [ 380696.920788168325089, 557072.847680100356229 ] ] ] } },
{ "type": "Feature", "properties": { "Names": null, "source": null, "target": null }, "geometry": { "type": "MultiLineString", "coordinates": [ [ [ 380741.277799572737422, 557100.733677010633983 ], [ 380731.194334738422185, 557113.188618480693549 ], [ 380725.866276994580403, 557122.433318504947238 ], [ 380723.749471419898327, 557134.869767078896984 ], [ 380720.91612539824564, 557144.820806849980727 ], [ 380700.60751000023447, 557142.367725551477633 ], [ 380677.44561768200947, 557137.787994660437107 ], [ 380669.251394560968038, 557137.091064812149853 ] ] ] } },
{ "type": "Feature", "properties": { "Names": null, "source": null, "target": null }, "geometry": { "type": "MultiLineString", "coordinates": [ [ [ 380659.727326285792515, 557334.581609419314191 ], [ 380666.043112977175042, 557356.142672610236332 ], [ 380686.999971955781803, 557370.025160723365843 ], [ 380713.51851228333544, 557371.373091295012273 ], [ 380736.522805990127381, 557357.418033242225647 ], [ 380745.545925730897579, 557328.177256933646277 ], [ 380747.58305353380274, 557294.077029192238115 ], [ 380748.190151730726939, 557239.103529568295926 ], [ 380740.473053685505874, 557214.065502885146998 ], [ 380721.616451205452904, 557204.354653460904956 ], [ 380695.100148000230547, 557204.398412150447257 ], [ 380675.579047932871617, 557214.868451315676793 ], [ 380663.072689026594162, 557247.594262110767886 ], [ 380660.340095603372902, 557283.087357573676854 ], [ 380659.034126338316128, 557337.366172536625527 ] ] ] } },
{ "type": "Feature", "properties": { "Names": null, "source": null, "target": null }, "geometry": { "type": "MultiLineString", "coordinates": [ [ [ 380837.337736598739866, 557190.054656083113514 ], [ 380813.601402009779122, 557202.633212415268645 ], [ 380794.312951683416031, 557216.420277042197995 ], [ 380777.776888281980064, 557226.351335874991491 ], [ 380761.232660216686781, 557231.330519075854681 ], [ 380747.448074044543318, 557236.855364042567089 ] ] ] } },
{ "type": "Feature", "properties": { "Names": null, "source": null, "target": null }, "geometry": { "type": "MultiLineString", "coordinates": [ [ [ 380757.332979201164562, 557232.89350598747842 ], [ 380749.618751810281537, 557214.843364867730998 ], [ 380744.071330371371005, 557196.695571695221588 ], [ 380730.823051765852142, 557192.865955778514035 ], [ 380701.02417912427336, 557190.164074789965525 ], [ 380672.876001566299237, 557184.708427937468514 ], [ 380662.943646557978354, 557184.174613244249485 ] ] ] } },
{ "type": "Feature", "properties": { "Names": null, "source": null, "target": null }, "geometry": { "type": "MultiLineString", "coordinates": [ [ [ 380720.91612539824564, 557144.820806849980727 ], [ 380720.449698352778796, 557158.209167222492397 ], [ 380728.264566871570423, 557162.089622375206091 ], [ 380731.700834278715774, 557174.250668254448101 ], [ 380744.071330371371005, 557196.695571695221588 ] ] ] } },
{ "type": "Feature", "properties": { "Names": null, "source": null, "target": null }, "geometry": { "type": "MultiLineString", "coordinates": [ [ [ 380659.470157059724443, 557284.935372870997526 ], [ 380649.572025523113552, 557284.371150818304159 ] ] ] } },
{ "type": "Feature", "properties": { "Names": null, "source": null, "target": null }, "geometry": { "type": "MultiLineString", "coordinates": [ [ [ 380887.815761848294642, 557423.680486708297394 ], [ 380860.399949306272902, 557413.889265408506617 ], [ 380836.290103483013809, 557415.021956742391922 ], [ 380817.638545533642173, 557403.030425745644607 ] ] ] } },
{ "type": "Feature", "properties": { "Names": null, "source": null, "target": null }, "geometry": { "type": "MultiLineString", "coordinates": [ [ [ 380864.102305545762647, 557414.949482766212896 ], [ 380860.592223642393947, 557405.083687045495026 ], [ 380858.831916737137362, 557396.957050405675545 ], [ 380831.423542125558015, 557372.61362636636477 ] ] ] } },
{ "type": "Feature", "properties": { "Names": null, "source": null, "target": null }, "geometry": { "type": "MultiLineString", "coordinates": [ [ [ 380908.144369363260921, 557391.124187153880484 ], [ 380906.053800205700099, 557377.040025352151133 ], [ 380897.052800782141276, 557351.284846147638746 ], [ 380886.313145238207653, 557315.911727129132487 ] ] ] } },
{ "type": "Feature", "properties": { "Names": null, "source": null, "target": null }, "geometry": { "type": "MultiLineString", "coordinates": [ [ [ 380885.695176320499741, 557314.639652526006103 ], [ 380863.368749715795275, 557323.203040382708423 ], [ 380845.90448368206853, 557326.135238533373922 ] ] ] } },
{ "type": "Feature", "properties": { "Names": null, "source": null, "target": null }, "geometry": { "type": "MultiLineString", "coordinates": [ [ [ 380854.491480714408681, 557324.638978134491481 ], [ 380847.68202504015062, 557344.714111491339281 ], [ 380819.15211824036669, 557346.503199953818694 ] ] ] } },
{ "type": "Feature", "properties": { "Names": null, "source": null, "target": null }, "geometry": { "type": "MultiLineString", "coordinates": [ [ [ 380891.573395806888584, 557418.005883704056032 ], [ 380900.816645042446908, 557420.503396168816835 ], [ 380910.048850038961973, 557416.300266597303562 ], [ 380944.098683367250487, 557436.346139061381109 ] ] ] } },
{ "type": "Feature", "properties": { "Names": null, "source": null, "target": null }, "geometry": { "type": "MultiLineString", "coordinates": [ [ [ 380928.124357848544605, 557426.74026137101464 ], [ 380941.943684955360368, 557402.84638664801605 ] ] ] } },
{ "type": "Feature", "properties": { "Names": null, "source": null, "target": null }, "geometry": { "type": "MultiLineString", "coordinates": [ [ [ 381016.668880081677344, 557385.971659174771048 ], [ 381012.492041567806154, 557399.798646160634235 ], [ 381007.051189343095757, 557411.114968033391051 ], [ 380996.984579600917641, 557418.669787774095312 ] ] ] } },
{ "type": "Feature", "properties": { "Names": null, "source": null, "target": null }, "geometry": { "type": "MultiLineString", "coordinates": [ [ [ 381044.641864329576492, 557389.486341036157683 ], [ 381042.661734923196491, 557402.79940473602619 ] ] ] } },
{ "type": "Feature", "properties": { "Names": null, "source": null, "target": null }, "geometry": { "type": "MultiLineString", "coordinates": [ [ [ 380880.84850670810556, 557304.4275983562693 ], [ 380891.110179940238595, 557297.283850061241537 ] ] ] } },
{ "type": "Feature", "properties": { "Names": null, "source": null, "target": null }, "geometry": { "type": "MultiLineString", "coordinates": [ [ [ 380846.09599461092148, 557215.136332600959577 ], [ 380833.091946208849549, 557218.869733443832956 ], [ 380823.842488736438099, 557226.700528607238084 ] ] ] } },
{ "type": "Feature", "properties": { "Names": null, "source": null, "target": null }, "geometry": { "type": "MultiLineString", "coordinates": [ [ [ 380846.09599461092148, 557215.136332600959577 ], [ 380880.369291813287418, 557202.315029488294385 ], [ 380906.702183361572679, 557195.301779181230813 ], [ 380938.944706552021671, 557185.598090195679106 ] ] ] } },
{ "type": "Feature", "properties": { "Names": null, "source": null, "target": null }, "geometry": { "type": "MultiLineString", "coordinates": [ [ [ 380837.337736598739866, 557190.054656083113514 ], [ 380849.15345500985859, 557182.529173278366216 ], [ 380865.810591211426072, 557176.604144044453278 ], [ 380878.171022318361793, 557173.366915570106357 ], [ 380899.665160060569178, 557166.361638410948217 ], [ 380900.186018301639706, 557156.174058971577324 ], [ 380894.794595813145861, 557147.068506315699778 ], [ 380886.721151686506346, 557141.720375356846489 ], [ 380861.999395012971945, 557147.65868736396078 ], [ 380844.806378393783234, 557154.656885960604995 ], [ 380826.535431488242466, 557160.048436274868436 ] ] ] } },
{ "type": "Feature", "properties": { "Names": null, "source": null, "target": null }, "geometry": { "type": "MultiLineString", "coordinates": [ [ [ 380895.780819511157461, 557148.734135568956845 ], [ 380915.744919864984695, 557136.311129547539167 ], [ 380928.078868196636904, 557116.989659871440381 ], [ 380931.289702900801785, 557107.869937934214249 ], [ 380927.484600830299314, 557081.222346210386604 ] ] ] } },
{ "type": "Feature", "properties": { "Names": null, "source": null, "target": null }, "geometry": { "type": "MultiLineString", "coordinates": [ [ [ 380858.256230627186596, 557469.26853445742745 ], [ 380839.084487104672007, 557458.013863174477592 ] ] ] } },
{ "type": "Feature", "properties": { "Names": null, "source": null, "target": null }, "geometry": { "type": "MultiLineString", "coordinates": [ [ [ 380776.823716958286241, 557592.214135199086741 ], [ 380708.448676086089108, 557609.772184190573171 ] ] ] } },
{ "type": "Feature", "properties": { "Names": null, "source": null, "target": null }, "geometry": { "type": "MultiLineString", "coordinates": [ [ [ 380765.402864223986398, 557629.857859088340774 ], [ 380849.99311192141613, 557659.56086575333029 ], [ 380926.212608347181231, 557694.812638501054607 ], [ 380964.755989404919092, 557703.224630096578039 ], [ 380973.838493648101576, 557713.380294050322846 ], [ 380974.438627178198658, 557733.720571219804697 ], [ 380965.408279982919339, 557755.206792420824058 ], [ 380955.646118418022525, 557789.877951343893073 ] ] ] } },
{ "type": "Feature", "properties": { "Names": null, "source": null, "target": null }, "geometry": { "type": "MultiLineString", "coordinates": [ [ [ 380863.795011250360403, 557665.944282663287595 ], [ 380849.150323585781734, 557698.621675287373364 ], [ 380839.413377251068596, 557718.121660190285183 ], [ 380834.544906379713211, 557727.871653606300242 ] ] ] } },
{ "type": "Feature", "properties": { "Names": null, "source": null, "target": null }, "geometry": { "type": "MultiLineString", "coordinates": [ [ [ 380834.544906379713211, 557727.871653606300242 ], [ 380857.459524528298061, 557747.956467652809806 ], [ 380877.962067034968641, 557760.874643603223376 ] ] ] } },
{ "type": "Feature", "properties": { "Names": null, "source": null, "target": null }, "geometry": { "type": "MultiLineString", "coordinates": [ [ [ 380712.478237298608292, 557803.977521038730629 ], [ 380755.775553373037837, 557829.184249802608974 ] ] ] } },
{ "type": "Feature", "properties": { "Names": null, "source": null, "target": null }, "geometry": { "type": "MultiLineString", "coordinates": [ [ [ 380739.61058235890232, 557740.128592278808355 ], [ 380663.820541018736549, 557732.267097503645346 ], [ 380653.857037901878357, 557726.062348381034099 ], [ 380646.592973210732453, 557721.884518685052171 ], [ 380644.26536396809388, 557700.177405415568501 ], [ 380643.849418154975865, 557679.609814973780885 ], [ 380638.104985585960094, 557670.477851310512051 ], [ 380636.93205332220532, 557654.101346063194796 ], [ 380638.048335036612116, 557636.197481645387597 ], [ 380635.314852930430789, 557600.017065394902602 ] ] ] } },
{ "type": "Feature", "properties": { "Names": null, "source": null, "target": null }, "geometry": { "type": "MultiLineString", "coordinates": [ [ [ 380639.25210968835745, 557671.237743650213815 ], [ 380750.043585146660917, 557685.909596959128976 ] ] ] } },
{ "type": "Feature", "properties": { "Names": null, "source": null, "target": null }, "geometry": { "type": "MultiLineString", "coordinates": [ [ [ 380639.253368618548848, 557671.999529637163505 ], [ 380599.885549920494668, 557656.067048401222564 ], [ 380587.656056968262419, 557651.897431013872847 ], [ 380591.059021250577644, 557630.942630235804245 ] ] ] } },
{ "type": "Feature", "properties": { "Names": null, "source": null, "target": null }, "geometry": { "type": "MultiLineString", "coordinates": [ [ [ 380663.358780972776003, 557732.181559719960205 ], [ 380658.499811837798916, 557765.151857980526984 ], [ 380665.674604107567575, 557782.066571422270499 ], [ 380691.630395066400524, 557811.422460299101658 ], [ 380695.942526988568716, 557814.928913213312626 ] ] ] } },
{ "type": "Feature", "properties": { "Names": null, "source": null, "target": null }, "geometry": { "type": "MultiLineString", "coordinates": [ [ [ 380736.178856992046349, 557763.425419829087332 ], [ 380774.834441593498923, 557783.719377403962426 ], [ 380809.627806753211189, 557804.019726141472347 ], [ 380826.750880322244484, 557815.545882860082202 ], [ 380858.240116760658566, 557839.703174861031584 ] ] ] } },
{ "type": "Feature", "properties": { "Names": null, "source": null, "target": null }, "geometry": { "type": "MultiLineString", "coordinates": [ [ [ 380756.349943221663125, 557597.471594148199074 ], [ 380739.557797318266239, 557569.382563259452581 ] ] ] } },
{ "type": "Feature", "properties": { "Names": null, "source": null, "target": null }, "geometry": { "type": "MultiLineString", "coordinates": [ [ [ 380069.112370127171744, 557516.746455536456779 ], [ 380039.654112870281097, 557518.547497606952675 ], [ 380036.982455738121644, 557530.074381244485267 ], [ 380035.109023288998287, 557545.703825139789842 ], [ 380030.158672541612759, 557577.692538329400122 ] ] ] } },
{ "type": "Feature", "properties": { "Names": null, "source": null, "target": null }, "geometry": { "type": "MultiLineString", "coordinates": [ [ [ 380012.303504835872445, 557575.00380771397613 ], [ 380030.158672541612759, 557577.692538329400122 ], [ 380068.768646988435648, 557581.74985004379414 ] ] ] } },
{ "type": "Feature", "properties": { "Names": null, "source": null, "target": null }, "geometry": { "type": "MultiLineString", "coordinates": [ [ [ 380736.522805990127381, 557357.418033242225647 ], [ 380724.492395460081752, 557385.161516224616207 ], [ 380709.765466175857, 557413.071143708541058 ], [ 380685.611158323299605, 557483.087393488734961 ], [ 380675.631846159230918, 557510.463057624758221 ] ] ] } },
{ "type": "Feature", "properties": { "Names": null, "source": null, "target": null }, "geometry": { "type": "MultiLineString", "coordinates": [ [ [ 380948.541207044327166, 557056.126137171289884 ], [ 380952.655431325372774, 557051.339992522029206 ], [ 380961.297392268315889, 557052.772643204312772 ], [ 380964.364174953603651, 557032.774364580283873 ] ] ] } },
{ "type": "Feature", "properties": { "Names": null, "source": null, "target": null }, "geometry": { "type": "MultiLineString", "coordinates": [ [ [ 381181.568936256458983, 556583.571480430313386 ], [ 381243.763995779387187, 556545.061381081817672 ], [ 381338.104587021225598, 556482.822477292618714 ], [ 381367.353389561118092, 556462.255192743614316 ], [ 381595.137666019494645, 556309.425391714205034 ] ], [ [ 381188.870714335585944, 556598.874469518428668 ], [ 381283.395994457765482, 556528.677342234062962 ], [ 381373.319395829574205, 556467.366480906726792 ], [ 381600.757264137908351, 556315.116014323779382 ] ] ] } },
{ "type": "Feature", "properties": { "Names": null, "source": null, "target": null }, "geometry": { "type": "MultiLineString", "coordinates": [ [ [ 381600.757264137908351, 556315.116014323779382 ], [ 381785.482998352264985, 556190.809297947096638 ], [ 381813.730278010480106, 556165.31174677296076 ] ] ] } },
{ "type": "Feature", "properties": { "Names": null, "source": null, "target": null }, "geometry": { "type": "MultiLineString", "coordinates": [ [ [ 381595.137666019494645, 556309.425391714205034 ], [ 381664.272164428373799, 556263.784914015443064 ], [ 381756.162015918293037, 556199.864943674998358 ], [ 381776.403205843525939, 556183.897109312703833 ], [ 381797.301363879058044, 556160.17692239349708 ], [ 381802.41652948979754, 556156.980776930460706 ] ] ] } },
{ "type": "Feature", "properties": { "Names": null, "source": null, "target": null }, "geometry": { "type": "MultiLineString", "coordinates": [ [ [ 381826.255977368331514, 556158.934247077559121 ], [ 381897.095633409975562, 556130.425065229879692 ], [ 381954.620977545622736, 556115.486032758955844 ], [ 381965.091417763673235, 556113.142751418054104 ], [ 382146.643560129334219, 556071.313122697174549 ], [ 382384.703511450497899, 556028.020732822129503 ], [ 382442.132525207241997, 556010.200058885850012 ], [ 382552.688578233937733, 555969.181810910347849 ], [ 382677.971518445527181, 555915.175618393695913 ], [ 382753.338967001705896, 555878.56015327910427 ], [ 382779.332856955705211, 555860.04075655573979 ], [ 382850.479158071044367, 555836.962512807920575 ], [ 382913.025890570366755, 555823.11872926633805 ], [ 382997.663826812640764, 555804.735660914564505 ], [ 383178.538149866741151, 555756.960710594896227 ], [ 383213.69205308763776, 555750.482154368190095 ], [ 383226.998394945112523, 555749.802770477370359 ], [ 383286.10121553519275, 555749.78170360752847 ], [ 383345.056279679527506, 555750.344731689430773 ], [ 383434.152688035392202, 555759.477454275707714 ], [ 383555.885415350203402, 555791.576577340601943 ], [ 383739.460713356675114, 555851.766241793287918 ], [ 383796.023873812286183, 555867.549537046230398 ] ] ] } },
{ "type": "Feature", "properties": { "Names": null, "source": null, "target": null }, "geometry": { "type": "MultiLineString", "coordinates": [ [ [ 381827.772924419667106, 556148.895771885872819 ], [ 381880.13690753543051, 556125.216950813890435 ], [ 381910.157006786379497, 556116.308890568674542 ], [ 381948.346009436878376, 556107.674801866291091 ], [ 382038.953156133182347, 556085.75009345903527 ], [ 382140.237568310054485, 556063.641333240899257 ], [ 382294.825975179322995, 556035.774789649178274 ], [ 382386.538152475608513, 556019.00112289621029 ], [ 382414.776371974206995, 556011.504746447317302 ], [ 382445.833265905443113, 556000.083937509567477 ], [ 382516.955988776986487, 555974.039965837146156 ], [ 382599.184913747420069, 555942.973989300080575 ], [ 382665.299421120726038, 555911.545008502202109 ], [ 382709.271251593949273, 555887.250328719383106 ], [ 382727.693016520235687, 555877.768348607467487 ], [ 382765.642051163187716, 555858.580213199486025 ], [ 382773.461031569051556, 555855.092504257918335 ], [ 382783.406552523956634, 555850.656140303821303 ], [ 382798.943389186169952, 555844.357369698933326 ], [ 382815.429869813087862, 555839.150552514009178 ], [ 382860.684590779419523, 555826.594974502921104 ], [ 382910.485351274313871, 555815.15336807037238 ], [ 382966.063642212771811, 555802.062241600360721 ], [ 383041.269691400229931, 555783.916867875726894 ], [ 383072.991998796467669, 555775.886950936284848 ], [ 383108.745775988674723, 555766.831197330029681 ], [ 383160.913383640581742, 555753.597467673011124 ], [ 383189.745994958444498, 555745.803936275071464 ], [ 383235.088930583558977, 555741.811010437319055 ], [ 383267.874445466964971, 555741.906467778375372 ], [ 383388.240048001112882, 555744.363014402799308 ], [ 383435.570436297683045, 555751.172115293331444 ], [ 383488.337901343009435, 555764.227597897290252 ], [ 383575.135495274735149, 555788.598806128953584 ], [ 383725.245384514855687, 555830.327143717207946 ], [ 383790.293384921969846, 555846.374828299740329 ], [ 383801.95351456181379, 555850.655923804151826 ] ] ] } },
{ "type": "Feature", "properties": { "Names": null, "source": null, "target": null }, "geometry": { "type": "MultiLineString", "coordinates": [ [ [ 383850.4655173253268, 555870.047686798498034 ], [ 383866.558161688968539, 555874.219751490280032 ], [ 383904.612111674621701, 555885.603262646123767 ], [ 383964.068069164641201, 555901.888803508132696 ], [ 384032.535474101081491, 555920.642729710787535 ], [ 384062.355751974508166, 555928.810832509770989 ], [ 384088.561326422728598, 555935.988839223980904 ], [ 384104.475144861266017, 555938.771218562498689 ], [ 384252.135650299489498, 555942.76082163117826 ], [ 384366.021198371425271, 555943.820716502144933 ], [ 384393.371616696938872, 555944.805682301521301 ], [ 384429.369544310495257, 555949.029503529891372 ], [ 384462.828546687960625, 555957.844446483999491 ], [ 384492.736499981954694, 555965.923722438514233 ], [ 384570.726650029420853, 555986.334598518908024 ], [ 384616.149392443709075, 555997.6047727689147 ], [ 384651.728418048471212, 556001.412358645349741 ], [ 384680.429903232492507, 555998.855368534103036 ], [ 384731.851128879934549, 555983.844761345535517 ], [ 384813.880367050878704, 555955.515509279444814 ], [ 384945.568982230499387, 555908.638822328299284 ], [ 385006.763244712725282, 555887.000448884442449 ], [ 385028.758049817755818, 555879.112594882026315 ], [ 385085.823333319276571, 555860.256877232342958 ], [ 385174.360703862272203, 555834.097670206800103 ], [ 385219.196591660380363, 555821.217866810038686 ], [ 385250.194574502296746, 555813.032462887465954 ], [ 385303.552165126428008, 555800.095001447945833 ], [ 385352.755468984134495, 555792.779808912426233 ], [ 385366.432852514088154, 555791.720296235755086 ], [ 385395.117678768932819, 555790.349782662466168 ], [ 385427.985896587371826, 555790.001276498660445 ], [ 385501.295209149830043, 555794.694860298186541 ], [ 385519.288757082074881, 555796.352982530370355 ], [ 385624.767101712524891, 555804.950497159734368 ], [ 385643.754384351894259, 555806.498162293806672 ], [ 385659.964767378754914, 555808.835604606196284 ], [ 385679.7446383908391, 555811.834625056013465 ], [ 385729.642849921248853, 555820.91147119551897 ], [ 385760.484913883730769, 555826.283889761194587 ], [ 385787.645999561995268, 555831.013449896126986 ], [ 385812.25150166079402, 555835.709979459643364 ], [ 385891.086146409623325, 555849.828778987750411 ], [ 385940.464346662163734, 555859.20311401411891 ], [ 386000.547135875560343, 555868.125101452693343 ], [ 386025.677140828222036, 555869.549714367836714 ], [ 386051.102690631523728, 555869.815528886392713 ], [ 386084.694252878427505, 555868.576569426804781 ], [ 386100.600955223664641, 555866.929885456338525 ], [ 386119.414770694449544, 555864.305628996342421 ], [ 386147.58110825996846, 555858.284324126318097 ], [ 386181.244484390132129, 555849.520710187032819 ], [ 386223.227233758196235, 555836.305285826325417 ], [ 386267.586068127304316, 555821.251346966251731 ], [ 386310.982391062192619, 555808.700966272503138 ], [ 386352.298883127979934, 555797.265883723273873 ], [ 386399.487380992621183, 555785.154418313875794 ], [ 386451.657041960395873, 555773.174183271825314 ], [ 386501.673586404882371, 555762.98583916015923 ], [ 386528.799754173494875, 555757.336995096877217 ], [ 386552.806172208860517, 555753.370322365313768 ], [ 386667.85273514688015, 555730.598064459860325 ], [ 386786.835786282084882, 555705.456842344254255 ], [ 386910.50612011179328, 555682.662264766171575 ], [ 386943.512947166338563, 555675.693667389452457 ], [ 386962.816718768328428, 555671.618148373439908 ], [ 386989.268925320357084, 555666.331953188404441 ], [ 387032.686192234046757, 555657.655492704361677 ], [ 387142.531470660120249, 555636.513829933479428 ], [ 387202.11954608745873, 555628.937944190576673 ], [ 387243.698008508421481, 555623.394149202853441 ], [ 387261.715342224575579, 555622.008200455456972 ], [ 387280.42565031349659, 555622.008200455456972 ], [ 387300.521907148882747, 555629.630918566137552 ], [ 387317.846266491338611, 555637.946611048653722 ], [ 387355.266882669180632, 555651.806098522618413 ], [ 387400.310216957703233, 555663.5866628754884 ], [ 387470.300628697499633, 555686.454817207530141 ] ], [ [ 383844.624786195345223, 555884.439116679131985 ], [ 383864.687120980583131, 555889.633431101217866 ], [ 383900.22494385112077, 555896.619243917986751 ], [ 383976.846447696909308, 555919.127431767061353 ], [ 384048.124127388000488, 555939.306186953559518 ], [ 384107.764409159310162, 555950.136307265609503 ], [ 384140.771839964203537, 555949.6479766163975 ], [ 384237.715306786820292, 555949.928552715107799 ], [ 384315.618949391879141, 555950.990266973152757 ], [ 384382.836286058649421, 555952.356387387961149 ], [ 384417.624740669503808, 555955.701788088306785 ], [ 384436.968996523879468, 555959.368375083431602 ], [ 384491.477375718764961, 555974.701369550079107 ], [ 384537.376370440237224, 555987.407089684158564 ], [ 384609.584356624633074, 556006.576201653108001 ], [ 384637.617575282230973, 556010.367999250069261 ], [ 384670.773807746358216, 556008.665189826861024 ], [ 384722.343636223115027, 555994.942949561402202 ], [ 384813.215045595541596, 555963.726925548166037 ], [ 384886.856034596450627, 555937.375658873468637 ], [ 384948.367582297883928, 555915.408384744077921 ], [ 384982.571937603875995, 555903.324522653594613 ], [ 385036.877867434173822, 555884.847564481198788 ], [ 385081.638632306829095, 555869.12022159807384 ], [ 385150.936046549119055, 555848.35841784067452 ], [ 385244.878027321770787, 555822.479486491531134 ], [ 385311.021603371016681, 555806.669480048120022 ], [ 385350.388192188926041, 555800.169158132746816 ], [ 385391.574468364939094, 555798.177995020523667 ], [ 385431.755843624472618, 555797.663058442994952 ], [ 385510.823755876161158, 555802.723346576094627 ], [ 385659.976201029494405, 555816.082183049991727 ], [ 385731.727375301532447, 555828.66445024497807 ], [ 385904.028333434835076, 555859.515159891918302 ], [ 385939.276268462650478, 555865.997504699975252 ], [ 385966.048344241455197, 555871.571011878550053 ], [ 386009.779985927976668, 555877.266113853082061 ], [ 386040.411331492476165, 555878.691343644633889 ], [ 386064.051248591393232, 555878.061096901074052 ], [ 386093.775797939859331, 555876.059082439169288 ], [ 386123.365252212621272, 555870.878802586346865 ], [ 386150.564889860339463, 555864.701483156532049 ], [ 386176.500158128328621, 555858.174025068059564 ], [ 386211.720881573855877, 555846.96156226657331 ], [ 386268.488719888962805, 555827.968310590833426 ], [ 386311.455217647366226, 555816.242477804422379 ], [ 386358.107755678705871, 555803.743484772741795 ], [ 386421.051401511766016, 555788.150839310139418 ], [ 386534.090651672333479, 555765.372228242456913 ], [ 386554.231861524283886, 555761.791542613878846 ], [ 386789.268267194740474, 555715.924433698877692 ], [ 386944.773282649926841, 555683.55579281412065 ], [ 386966.622385901398957, 555679.404582090675831 ], [ 387004.343356557190418, 555671.965168427675962 ], [ 387101.08246841467917, 555652.704862935468554 ], [ 387201.426571713760495, 555637.946611048653722 ], [ 387243.698008508421481, 555633.09579043276608 ], [ 387259.63641910161823, 555631.016867313534021 ], [ 387277.653752816841006, 555630.323892937973142 ], [ 387298.44298402685672, 555637.253636676818132 ], [ 387321.311138358898461, 555644.876354783773422 ], [ 387388.529652603901923, 555669.130457863211632 ], [ 387470.993603073060513, 555693.384560942649841 ] ] ] } },
{ "type": "Feature", "properties": { "Names": null, "source": null, "target": null }, "geometry": { "type": "MultiLineString", "coordinates": [ [ [ 386989.26892532070633, 555666.331953188288026 ], [ 386970.417320356005803, 555606.749472053255886 ], [ 386957.544290716934483, 555471.817641353816725 ], [ 386943.103192558628507, 555346.358561283792369 ], [ 386913.386622503108811, 555203.297990873106755 ] ], [ [ 386943.512947165232617, 555675.693667389801703 ], [ 386948.750525233102962, 555623.930655057891272 ], [ 386944.673976612044498, 555547.319578562513925 ], [ 386938.645045893266797, 555487.48188570770435 ], [ 386918.845673699281178, 555334.036378507269546 ], [ 386888.215668502787594, 555202.990495338104665 ] ] ] } },
{ "type": "Feature", "properties": { "Names": null, "source": null, "target": null }, "geometry": { "type": "MultiLineString", "coordinates": [ [ [ 383844.624786194006447, 555884.439116675872356 ], [ 383839.224521371186711, 555889.54451166652143 ], [ 383832.6321288124891, 555893.002328740316443 ], [ 383825.339712804416195, 555894.552308845566586 ], [ 383817.895387093769386, 555894.091638452839106 ], [ 383810.866059156367555, 555891.647208789363503 ], [ 383804.76311733352486, 555887.394268706906587 ], [ 383800.04244593239855, 555881.66569152334705 ], [ 383797.057856890838593, 555874.887182273669168 ], [ 383796.023873812286183, 555867.549537046230398 ], [ 383796.701885071583092, 555861.525031545665115 ], [ 383798.709249581967015, 555855.794931814074516 ], [ 383801.95351456181379, 555850.655923804151826 ], [ 383807.585834623896517, 555845.383351710624993 ], [ 383816.639766983280424, 555841.254377025994472 ], [ 383821.563759608136024, 555840.486605178681202 ], [ 383826.284676318115089, 555840.571704513393342 ], [ 383830.904723493091296, 555841.500244316412136 ], [ 383839.005005368904676, 555845.360779805574566 ], [ 383843.332196433795616, 555849.106895719771273 ], [ 383846.749965324881487, 555853.651413975516334 ], [ 383849.155808630282991, 555858.818429662729613 ], [ 383850.409932783280965, 555864.357963300775737 ], [ 383850.465517326258123, 555870.047686796286143 ], [ 383849.479441699921153, 555875.201605911832303 ], [ 383847.517127384489868, 555880.051285687601194 ], [ 383844.624786194006447, 555884.439116675872356 ] ] ] } },
{ "type": "Feature", "properties": { "Names": null, "source": null, "target": null }, "geometry": { "type": "MultiLineString", "coordinates": [ [ [ 381820.902069861651398, 556163.89148203318473 ], [ 381813.730278010480106, 556165.31174677296076 ], [ 381806.867940556723624, 556162.746760932845064 ], [ 381802.41652948979754, 556156.980776930460706 ], [ 381801.578892996360082, 556150.504614408011548 ], [ 381803.947945635474753, 556144.421693210722879 ], [ 381808.949919717968442, 556140.197112704627216 ], [ 381815.378420936525799, 556138.861462558386847 ], [ 381821.896001585759223, 556140.861734220059589 ], [ 381825.609479967271909, 556144.302943652262911 ], [ 381827.772924419667106, 556148.895771885872819 ], [ 381827.936429097433574, 556152.276673655025661 ], [ 381828.022976071457379, 556154.066266922629438 ], [ 381826.255977368331514, 556158.934247077559121 ], [ 381820.902069861651398, 556163.89148203318473 ] ] ] } },
{ "type": "Feature", "properties": { "Names": null, "source": null, "target": null }, "geometry": { "type": "MultiLineString", "coordinates": [ [ [ 381177.548244495294057, 556611.845418754732236 ], [ 381182.918721866677515, 556609.671222139964812 ], [ 381186.157956094481051, 556606.272318586125039 ], [ 381188.207474874041509, 556601.296956893173046 ], [ 381188.870714335585944, 556598.874469518428668 ], [ 381187.637934717931785, 556591.827422169968486 ], [ 381185.653174396895338, 556588.042492849286646 ], [ 381183.11558861262165, 556584.968756448477507 ], [ 381181.568936256458983, 556583.571480430313386 ], [ 381176.304483473184519, 556581.980957398889586 ], [ 381169.340407536947168, 556582.229154091794044 ], [ 381164.516007041325793, 556584.210090750013478 ], [ 381160.249227088061161, 556588.3998885670444 ], [ 381158.314600386307575, 556594.924639910110272 ], [ 381158.843858998967335, 556600.082443543476984 ], [ 381159.799779586028308, 556603.86906193906907 ], [ 381161.303997230250388, 556607.529751190799288 ], [ 381165.191648365696892, 556610.094933850923553 ], [ 381170.498413215507753, 556612.690598757006228 ], [ 381172.635107118228916, 556612.608169505372643 ], [ 381177.548244495294057, 556611.845418754732236 ] ] ] } },
{ "type": "Feature", "properties": { "Names": "Uniuyo Main Avenue", "source": null, "target": null }, "geometry": { "type": "MultiLineString", "coordinates": [ [ [ 386685.052246897714213, 556917.000009179115295 ], [ 386711.177725465386175, 556922.878030518069863 ], [ 386731.111520084668882, 556933.632449014810845 ], [ 386751.835677905881312, 556943.727973168133758 ] ], [ [ 386751.324078186997212, 556943.8387132990174 ], [ 386766.952072482090443, 556950.864367959089577 ], [ 386781.844883081095759, 556960.100917075527832 ], [ 386797.26743043505121, 556970.704573971685022 ], [ 386825.754301055450924, 556990.894019113969989 ], [ 386872.200231078197248, 557043.960334802861325 ], [ 386907.908208406763151, 557104.672327246516943 ], [ 386922.201506413286552, 557135.428491538856179 ], [ 386944.553195845568553, 557207.92035307828337 ], [ 386943.088905926968437, 557283.685154419858009 ], [ 386930.530290232622065, 557349.997001272393391 ], [ 386908.450275459443219, 557400.53989880240988 ], [ 386896.563183890481014, 557423.931768740876578 ], [ 386888.27639969647862, 557438.544810702791438 ], [ 386874.061578470747918, 557457.902293661143631 ], [ 386863.009250715724193, 557475.281846226425841 ], [ 386833.904551391548011, 557512.458963503013365 ], [ 386795.170792493852787, 557540.930602419073693 ], [ 386734.294145684456453, 557579.696497705182992 ], [ 386682.883317495579831, 557598.717770349583589 ], [ 386633.829347535036504, 557606.686675775097683 ], [ 386572.101942921581212, 557607.572773348074406 ], [ 386518.274821227358188, 557599.765379461226985 ], [ 386460.47706829267554, 557583.283130444819108 ], [ 386425.632179973879829, 557568.343220117269084 ], [ 386382.059599447646178, 557539.211555266869254 ], [ 386346.405891991977114, 557513.224228616105393 ], [ 386302.803435253445059, 557465.151982296723872 ], [ 386275.018898996699136, 557410.741299177403562 ], [ 386259.125147262588143, 557368.939012963674031 ], [ 386244.814174876082689, 557327.134235610836186 ], [ 386240.004925582208671, 557288.471279653836973 ], [ 386238.357539402612019, 557247.435763672110625 ], [ 386247.758681767561939, 557186.653001324040815 ], [ 386255.085358312237076, 557148.694377801963128 ], [ 386265.325120123685338, 557117.899689260637388 ], [ 386295.322570489603095, 557069.711656446103007 ], [ 386319.805080139136408, 557037.316198245855048 ], [ 386349.822451868327335, 557001.755277597345412 ], [ 386375.112531812454108, 556979.6181017216295 ], [ 386406.740028306550812, 556961.416953072766773 ], [ 386455.764720021921676, 556934.507373219472356 ], [ 386515.878960313391872, 556913.893982478533871 ], [ 386561.766579103365075, 556905.140864695189521 ], [ 386601.34279605851043, 556909.024769691983238 ], [ 386651.204735515406355, 556911.314187769195996 ], [ 386685.125142795208376, 556916.943226499482989 ] ] ] } },
{ "type": "Feature", "properties": { "Names": "Perm Site Entrance", "source": null, "target": null }, "geometry": { "type": "MultiLineString", "coordinates": [ [ [ 386780.421136316843331, 555717.650926614180207 ], [ 386788.451000141911209, 555765.46383123472333 ], [ 386798.282432366162539, 555810.695529436692595 ], [ 386805.996441153809428, 555851.458442023023963 ], [ 386809.483049903996289, 555866.934328058734536 ], [ 386814.526141312904656, 555886.656270623207092 ], [ 386840.732205105014145, 556000.215253230184317 ], [ 386858.663219250738621, 556079.764181587845087 ], [ 386876.267436772584915, 556161.220834340900183 ], [ 386889.554539227858186, 556223.28324087895453 ], [ 386894.550759413279593, 556255.237741701304913 ], [ 386896.580641271546483, 556288.117600675672293 ], [ 386895.962743322364986, 556314.753820164129138 ], [ 386894.040697669610381, 556336.832297146320343 ], [ 386890.900554520078003, 556353.147186234593391 ], [ 386886.706849911250174, 556370.515978941693902 ], [ 386879.62119316495955, 556394.202833499759436 ], [ 386854.210038466379046, 556474.126399083063006 ], [ 386846.962673329748213, 556495.603774521499872 ], [ 386836.799832894466817, 556528.592142641544342 ], [ 386826.56119018420577, 556560.333708073943853 ], [ 386765.237270658835769, 556743.744719497859478 ], [ 386739.646444174461067, 556826.650061793625355 ], [ 386708.281759621575475, 556922.226461140438914 ] ], [ [ 386691.473855403251946, 556918.4448182284832 ], [ 386704.385576999746263, 556883.132599590346217 ], [ 386722.24076890386641, 556829.965622270479798 ], [ 386740.621947866864502, 556775.745574466884136 ], [ 386767.538542874157429, 556688.712436644360423 ], [ 386782.971497646532953, 556646.926820084452629 ], [ 386808.727641362696886, 556571.233608771115541 ], [ 386823.824220646172762, 556525.173743315041065 ], [ 386863.310716365464032, 556401.230654817074537 ], [ 386870.853909431956708, 556374.912439741194248 ], [ 386876.745264392346144, 556346.623825870454311 ], [ 386879.353998963721097, 556327.876421554014087 ], [ 386881.298093037679791, 556305.841752965003252 ], [ 386881.369617665186524, 556281.267055841162801 ], [ 386875.491169600747526, 556233.398545991629362 ], [ 386868.578879540786147, 556199.210991816595197 ], [ 386853.492253291420639, 556125.094284385442734 ], [ 386837.557737493887544, 556057.051300020888448 ], [ 386829.913805684074759, 556018.918923031538725 ], [ 386806.261030971072614, 555914.442631332203746 ], [ 386796.69792923796922, 555872.104222500696778 ], [ 386788.615109862759709, 555831.675101010128856 ], [ 386775.062466384842992, 555768.560845108702779 ], [ 386763.945857767015696, 555720.866034490987659 ] ] ] } },
{ "type": "Feature", "properties": { "Names": null, "source": null, "target": null }, "geometry": { "type": "MultiLineString", "coordinates": [ [ [ 386772.024107159813866, 556723.446204608655535 ], [ 386842.583502098801546, 556744.078212674940005 ], [ 386907.817922351590823, 556758.637656294740736 ], [ 387038.464045329310466, 556799.997679917956702 ] ] ] } },
{ "type": "Feature", "properties": { "Names": null, "source": null, "target": null }, "geometry": { "type": "MultiLineString", "coordinates": [ [ [ 386374.986106274358463, 557254.356422701035626 ], [ 386401.483853472629562, 557329.288206605357118 ], [ 386423.999774153868202, 557388.442368627409451 ], [ 386435.245320604124572, 557410.127529365592636 ], [ 386487.326917741447687, 557398.207786905113608 ], [ 386522.254394151794259, 557381.711391167365946 ], [ 386533.459634543745779, 557377.747827077400871 ] ] ] } },
{ "type": "Feature", "properties": { "Names": null, "source": null, "target": null }, "geometry": { "type": "MultiLineString", "coordinates": [ [ [ 386908.527754715993069, 557105.727938524796627 ], [ 386821.224091574142221, 557158.269165846402757 ] ] ] } },
{ "type": "Feature", "properties": { "Names": null, "source": null, "target": null }, "geometry": { "type": "MultiLineString", "coordinates": [ [ [ 386492.110187631391454, 557592.303975699236616 ], [ 386467.177138243685476, 557667.156143044820055 ], [ 386440.895004592137411, 557729.280726123368368 ], [ 386421.939662428048905, 557753.512487420463003 ], [ 386414.120366893475875, 557813.678915895521641 ], [ 386420.496185956813861, 557842.079874912975356 ], [ 386423.713061920425389, 557874.694838269031607 ], [ 386430.521646290202625, 557870.764463883824646 ] ] ] } },
{ "type": "Feature", "properties": { "Names": null, "source": null, "target": null }, "geometry": { "type": "MultiLineString", "coordinates": [ [ [ 386030.639138643338811, 557355.985659595346078 ], [ 386045.977246197871864, 557415.084182148100808 ], [ 386059.211776290321723, 557443.342793883406557 ], [ 386086.318531257042196, 557486.048104555113241 ], [ 386120.712884239852428, 557549.787124097230844 ], [ 386157.720288341515698, 557597.73813716636505 ], [ 386182.1765244405251, 557632.555693289730698 ], [ 386204.639749630412553, 557658.169123316300102 ], [ 386232.367516262689605, 557676.539981269626878 ], [ 386238.967636718822177, 557679.817895483341999 ] ] ] } },
{ "type": "Feature", "properties": { "Names": null, "source": null, "target": null }, "geometry": { "type": "MultiLineString", "coordinates": [ [ [ 386940.206265846267343, 557298.906017726403661 ], [ 387033.142726764432155, 557343.984339974238537 ], [ 387107.662053344945889, 557425.943910751724616 ], [ 387182.213256747985724, 557528.422477244515903 ], [ 387250.376467729569413, 557594.608209522557445 ], [ 387275.772429770964663, 557640.341719872434624 ], [ 387348.809364275890402, 557787.017488822108135 ], [ 387377.370768986642361, 557832.746072379057296 ] ] ] } },
{ "type": "Feature", "properties": { "Names": null, "source": null, "target": null }, "geometry": { "type": "MultiLineString", "coordinates": [ [ [ 386833.904551391548011, 557512.458963503013365 ], [ 386894.743905458541121, 557573.592906532459892 ], [ 386924.33864249830367, 557605.11429278855212 ], [ 386973.494692834094167, 557662.385373201803304 ], [ 386977.751673254766501, 557685.52836831996683 ], [ 386983.766068156401161, 557702.262997924000956 ], [ 386993.039611770538613, 557728.226083592278883 ], [ 386997.698250224115327, 557755.182881650398485 ], [ 387003.992752688704059, 557773.916361256036907 ], [ 387019.192447356996126, 557793.951228256104514 ] ] ] } },
{ "type": "Feature", "properties": { "Names": null, "source": null, "target": null }, "geometry": { "type": "MultiLineString", "coordinates": [ [ [ 386734.294145684456453, 557579.696497705182992 ], [ 386752.182210422703065, 557606.075634419335984 ], [ 386770.813955439487472, 557627.749241475248709 ], [ 386791.819247112842277, 557649.024534285534173 ], [ 386800.927057596854866, 557653.350822298671119 ] ] ] } },
{ "type": "Feature", "properties": { "Names": null, "source": null, "target": null }, "geometry": { "type": "MultiLineString", "coordinates": [ [ [ 385912.744654758367687, 557371.166392256156541 ], [ 385891.356496646010783, 557349.806353433290496 ], [ 385857.056380776513834, 557345.91454456478823 ], [ 385768.712769005564041, 557364.468693891307339 ], [ 385733.139402177534066, 557389.516127101611346 ], [ 385706.780298938625492, 557402.711073646554723 ], [ 385672.498909178713802, 557410.657261345186271 ], [ 385615.777948661474511, 557408.116373974480666 ], [ 385456.87232624378521, 557429.413322441861965 ] ] ] } },
{ "type": "Feature", "properties": { "Names": null, "source": null, "target": null }, "geometry": { "type": "MultiLineString", "coordinates": [ [ [ 386104.748582477332093, 557117.001509064924903 ], [ 386123.317549999454059, 557038.497772691654973 ], [ 386134.290280208108015, 556970.609758958802558 ], [ 386148.757281899801455, 556898.712641860707663 ], [ 386138.763755027728621, 556884.83854981395416 ], [ 386105.199482149153482, 556872.579959880909882 ], [ 386056.551458017667755, 556855.509773280355148 ], [ 386021.719805870321579, 556849.25109340401832 ] ] ] } },
{ "type": "Feature", "properties": { "Names": null, "source": null, "target": null }, "geometry": { "type": "MultiLineString", "coordinates": [ [ [ 386148.757281899801455, 556898.712641860707663 ], [ 386168.95789289555978, 556872.695065748528577 ], [ 386176.789947575365659, 556820.595906619098969 ], [ 386127.680754648870789, 556793.840583569486625 ], [ 386107.096825400367379, 556789.137820855365135 ] ] ] } },
{ "type": "Feature", "properties": { "Names": null, "source": null, "target": null }, "geometry": { "type": "MultiLineString", "coordinates": [ [ [ 386176.78994757233886, 556820.595906612230465 ], [ 386186.521581403445452, 556768.616526456433348 ], [ 386162.212150670937262, 556743.400552655686624 ], [ 386140.013112822780386, 556718.181262453319505 ], [ 386115.72683742485242, 556707.696893005166203 ] ] ] } },
{ "type": "Feature", "properties": { "Names": null, "source": null, "target": null }, "geometry": { "type": "MultiLineString", "coordinates": [ [ [ 386186.521581403445452, 556768.616526456433348 ], [ 386204.337571899639443, 556690.721322786877863 ], [ 386222.181743822293356, 556630.714492820785381 ], [ 386241.069582947820891, 556563.340220840997063 ] ] ] } },
{ "type": "Feature", "properties": { "Names": null, "source": null, "target": null }, "geometry": { "type": "MultiLineString", "coordinates": [ [ [ 386506.536692880326882, 557132.719124468159862 ], [ 386538.261963808909059, 557108.118784605758265 ], [ 386557.768266118539032, 557098.617851171991788 ], [ 386586.760626956936903, 557082.262365641538054 ], [ 386607.313887713826261, 557067.498515909537673 ], [ 386624.164886845392175, 557046.953059928957373 ], [ 386635.734952562488616, 557023.259115215507336 ], [ 386638.335008743393701, 556999.053106466191821 ], [ 386637.737304556707386, 556954.333081551711075 ], [ 386640.336543955781963, 556929.600946315913461 ], [ 386641.076918708742596, 556910.849164845305495 ] ] ] } },
{ "type": "Feature", "properties": { "Names": null, "source": null, "target": null }, "geometry": { "type": "MultiLineString", "coordinates": [ [ [ 386455.764720021921676, 556934.507373219472356 ], [ 386483.887662906199694, 556948.041640004492365 ], [ 386502.489286268712021, 556950.380025589955039 ], [ 386518.727852349868044, 556959.824867099989206 ], [ 386529.451380093232729, 556985.062238485552371 ], [ 386531.452788884751499, 556999.659181251190603 ], [ 386535.023993967915885, 557005.967127070412971 ] ] ] } },
{ "type": "Feature", "properties": { "Names": null, "source": null, "target": null }, "geometry": { "type": "MultiLineString", "coordinates": [ [ [ 386866.488763904082589, 557037.43475222599227 ], [ 386808.035752425028477, 557076.382490065065213 ] ] ] } },
{ "type": "Feature", "properties": { "Names": null, "source": null, "target": null }, "geometry": { "type": "MultiLineString", "coordinates": [ [ [ 386853.343826921947766, 557487.628045080346055 ], [ 386819.099050158169121, 557470.277757121715695 ], [ 386795.318901534657925, 557445.85002317558974 ], [ 386769.96831485198345, 557429.316687352024019 ], [ 386746.996847260219511, 557415.936402429593727 ], [ 386726.410688857082278, 557409.655124002252705 ], [ 386704.240498682775069, 557402.587140896357596 ], [ 386673.369908483524341, 557398.689581830170937 ], [ 386644.858641791855916, 557385.318011929281056 ], [ 386635.354470796883106, 557380.597760131116956 ], [ 386614.789337743248325, 557387.732767499517649 ], [ 386590.256084367632866, 557387.77126640046481 ], [ 386557.006329962576274, 557380.720713550923392 ], [ 386533.459634543745779, 557377.747827077400871 ] ] ] } },
{ "type": "Feature", "properties": { "Names": null, "source": null, "target": null }, "geometry": { "type": "MultiLineString", "coordinates": [ [ [ 386895.030139308713842, 556334.271434704307467 ], [ 386901.961352436803281, 556339.347693411516957 ] ], [ [ 386901.696259731426835, 556338.123867299640551 ], [ 386932.843850449833553, 556361.859850327367894 ], [ 386967.097617751162034, 556382.488649501116015 ], [ 386996.166295102040749, 556403.125554902479053 ], [ 387017.967791460570879, 556418.60323948354926 ] ] ] } },
{ "type": "Feature", "properties": { "Names": null, "source": null, "target": null }, "geometry": { "type": "MultiLineString", "coordinates": [ [ [ 387035.645646904536989, 556798.281480744713917 ], [ 387113.456132986000739, 556851.193739832611755 ], [ 387232.182108609122224, 556908.121770072262734 ] ] ] } },
{ "type": "Feature", "properties": { "Names": null, "source": null, "target": null }, "geometry": { "type": "MultiLineString", "coordinates": [ [ [ 386638.637115502497181, 557605.905643647187389 ], [ 386628.139851670828648, 557670.850408388767391 ], [ 386620.344871103588957, 557746.625234728911892 ], [ 386617.347837400506251, 557853.960279916063882 ], [ 386619.06943066912936, 557942.347269920632243 ], [ 386616.055110237386543, 558038.633638053783216 ], [ 386620.897660798276775, 558098.604754197178409 ] ] ] } },
{ "type": "Feature", "properties": { "Names": null, "source": null, "target": null }, "geometry": { "type": "MultiLineString", "coordinates": [ [ [ 386953.410315065470058, 557086.947300868690945 ], [ 386953.490218620630912, 557087.050551592023112 ] ], [ [ 386953.490218620630912, 557087.050551592023112 ], [ 386953.674114335502964, 557086.946888405713253 ] ], [ [ 386953.490218620630912, 557087.050551592023112 ], [ 386974.557025034097023, 557114.272921037510969 ], [ 386997.753257789532654, 557102.661835414823145 ], [ 387005.648731993569527, 557090.811605582828633 ], [ 387002.721861707977951, 557074.769262540037744 ], [ 386999.786357279983349, 557053.202584321028553 ], [ 386998.716770690109115, 557043.997008225065656 ] ], [ [ 386910.181797763740178, 557109.112303975154646 ], [ 386930.743736476404592, 557099.872894113650545 ], [ 386953.490218620630912, 557087.050551592023112 ] ] ] } },
{ "type": "Feature", "properties": { "Names": null, "source": null, "target": null }, "geometry": { "type": "MultiLineString", "coordinates": [ [ [ 386567.175503423903137, 556905.671680926228873 ], [ 386568.142701452539768, 556929.363388768862933 ], [ 386567.792182053439319, 556958.169504744932055 ] ] ] } },
{ "type": "Feature", "properties": { "Names": null, "source": null, "target": null }, "geometry": { "type": "MultiLineString", "coordinates": [ [ [ 386540.823114316677675, 556909.135851465747692 ], [ 386460.93934803880984, 556743.917814012151212 ] ] ] } },
{ "type": "Feature", "properties": { "Names": null, "source": null, "target": null }, "geometry": { "type": "MultiLineString", "coordinates": [ [ [ 386394.906724345404655, 556968.226838610251434 ], [ 386496.189043597783893, 557094.854067532462068 ], [ 386506.536692881025374, 557132.719124466995709 ], [ 386485.982641999027692, 557146.956883137463592 ], [ 386461.472847771830857, 557161.990055893315002 ], [ 386443.286807959026191, 557172.278141532558948 ], [ 386431.450553905393463, 557194.394166092853993 ], [ 386425.160290914471261, 557220.447449900209904 ], [ 386395.104549618728925, 557231.543397359084338 ], [ 386375.355590400053188, 557254.461067752097733 ], [ 386357.959740710270125, 557263.958746045595035 ], [ 386321.366991110669915, 557269.97470594686456 ], [ 386240.257051337161101, 557275.363617954426445 ] ] ] } },
{ "type": "Feature", "properties": { "Names": null, "source": null, "target": null }, "geometry": { "type": "MultiLineString", "coordinates": [ [ [ 386412.698981466004625, 556958.146089504356496 ], [ 386338.512957250932232, 556845.595863468945026 ], [ 386309.148604881949723, 556793.160600997623987 ], [ 386485.426812786143273, 556696.181233518989757 ] ] ] } },
{ "type": "Feature", "properties": { "Names": null, "source": null, "target": null }, "geometry": { "type": "MultiLineString", "coordinates": [ [ [ 386276.731746708799619, 557414.095580683671869 ], [ 386242.070523303817026, 557452.622598407324404 ], [ 386210.457173187518492, 557479.636523925117217 ], [ 386190.6940495519666, 557493.478557132300921 ], [ 386176.882973093481269, 557517.833814366371371 ], [ 386170.981707548373379, 557539.545963951502927 ], [ 386177.5593532124185, 557563.430658954195678 ], [ 386190.78293208766263, 557584.783844482270069 ], [ 386206.305929380701855, 557600.54328047297895 ], [ 386225.447335588221904, 557610.706891161738895 ], [ 386241.623599383397959, 557622.519330778974108 ], [ 386255.822409846819937, 557634.992548992391676 ], [ 386293.153730410558637, 557679.325954212108627 ] ] ] } },
{ "type": "Feature", "properties": { "Names": null, "source": null, "target": null }, "geometry": { "type": "MultiLineString", "coordinates": [ [ [ 386242.7567043256131, 557218.993092536344193 ], [ 386147.728939559310675, 557188.618986219633371 ], [ 386131.875071669113822, 557172.202402877854183 ], [ 386104.748582477332093, 557117.001509064924903 ], [ 386050.377659336838406, 557057.371445199940354 ], [ 385971.145543553750031, 556999.095928501454182 ], [ 385928.377523003378883, 556978.644310391158797 ], [ 385880.858574071258772, 556956.621819290914573 ], [ 385849.192543137469329, 556950.358233907260001 ] ] ] } },
{ "type": "Feature", "properties": { "Names": null, "source": null, "target": null }, "geometry": { "type": "MultiLineString", "coordinates": [ [ [ 386131.875071669113822, 557172.202402877854183 ], [ 386098.426898723351769, 557183.045141867361963 ], [ 386081.044733418500982, 557201.224011101410724 ], [ 386068.450772428303026, 557244.649572090478614 ], [ 386053.503790699411184, 557301.4951605736278 ], [ 386030.639138644211926, 557355.985659597092308 ], [ 385991.868159092497081, 557360.781984625849873 ], [ 385924.611871978384443, 557368.780072475783527 ], [ 385912.744654758600518, 557371.166392265004106 ] ] ] } },
{ "type": "Feature", "properties": { "Names": null, "source": null, "target": null }, "geometry": { "type": "MultiLineString", "coordinates": [ [ [ 386801.863456079328898, 555826.992733808699995 ], [ 386816.148710408655461, 555812.17372228752356 ], [ 386830.963910231541377, 555797.353887291392311 ], [ 386835.182797380548436, 555784.135962427710183 ], [ 386837.806091136939358, 555767.221355302026495 ], [ 386835.661577588878572, 555751.371099865762517 ], [ 386836.169239430455491, 555737.102063704980537 ], [ 386838.468313669320196, 555705.683317190618254 ] ] ] } },
{ "type": "Feature", "properties": { "Names": null, "source": null, "target": null }, "geometry": { "type": "MultiLineString", "coordinates": [ [ [ 386786.17476643237751, 555751.910255743190646 ], [ 386836.002850368851796, 555741.778819388593547 ] ] ] } },
{ "type": "Feature", "properties": { "Names": null, "source": null, "target": null }, "geometry": { "type": "MultiLineString", "coordinates": [ [ [ 386792.12140854349127, 556620.036661274498329 ], [ 386717.44507516908925, 556608.710831257863902 ] ] ] } },
{ "type": "Feature", "properties": { "Names": null, "source": null, "target": null }, "geometry": { "type": "MultiLineString", "coordinates": [ [ [ 386913.600246095680632, 556347.195282347965986 ], [ 386927.218357358826324, 556329.866121385362931 ], [ 386944.068209297663998, 556308.400074886274524 ] ] ] } },
{ "type": "Feature", "properties": { "Names": null, "source": null, "target": null }, "geometry": { "type": "MultiLineString", "coordinates": [ [ [ 386798.135716622578911, 556645.350042994949035 ], [ 386847.346299064927734, 556643.615605931263417 ] ] ] } },
{ "type": "Feature", "properties": { "Names": null, "source": null, "target": null }, "geometry": { "type": "MultiLineString", "coordinates": [ [ [ 386777.57556990836747, 557434.278042478254065 ], [ 386791.516073564998806, 557392.228046610718593 ] ] ] } },
{ "type": "Feature", "properties": { "Names": null, "source": null, "target": null }, "geometry": { "type": "MultiLineString", "coordinates": [ [ [ 386633.829347535036504, 557606.686675775097683 ], [ 386623.438372335338499, 557578.302807808388025 ], [ 386613.147566085390281, 557534.58447970461566 ], [ 386608.477943711041007, 557500.722248902427964 ], [ 386596.567290607839823, 557475.420980586786754 ] ] ] } },
{ "type": "Feature", "properties": { "Names": null, "source": null, "target": null }, "geometry": { "type": "MultiLineString", "coordinates": [ [ [ 386475.423465044877958, 557587.54540603607893 ], [ 386481.026751055498607, 557573.376973341684788 ], [ 386485.828381898230873, 557540.118057698942721 ], [ 386489.157710863277316, 557510.018232365837321 ] ] ] } },
{ "type": "Feature", "properties": { "Names": null, "source": null, "target": null }, "geometry": { "type": "MultiLineString", "coordinates": [ [ [ 386485.828381898230873, 557540.118057698942721 ], [ 386470.620092812692747, 557529.296239107497968 ], [ 386455.820943632512353, 557512.483359095291235 ], [ 386438.382152298116125, 557494.622371122357436 ], [ 386428.13479150441708, 557487.009603330050595 ], [ 386419.253554911119863, 557475.817009263206273 ], [ 386405.769321703002788, 557456.424034078139812 ], [ 386394.027143883518875, 557437.65967628499493 ], [ 386364.203150710498448, 557397.280103514553048 ], [ 386346.332203911908437, 557356.270111530204304 ], [ 386340.648281145142391, 557323.330193457426503 ], [ 386338.418717868509702, 557314.652563829091378 ], [ 386357.959740710270125, 557263.958746045595035 ] ] ] } },
{ "type": "Feature", "properties": { "Names": null, "source": null, "target": null }, "geometry": { "type": "MultiLineString", "coordinates": [ [ [ 386425.160290914471261, 557220.447449900209904 ], [ 386451.47152239974821, 557280.365892269532196 ] ] ] } },
{ "type": "Feature", "properties": { "Names": null, "source": null, "target": null }, "geometry": { "type": "MultiLineString", "coordinates": [ [ [ 386497.712454635067843, 557138.831658843788318 ], [ 386518.590967056865338, 557151.569279565941542 ], [ 386555.808552258007694, 557165.453288466203958 ], [ 386604.098257934616413, 557174.584783215424977 ], [ 386624.681196200079285, 557178.761531256954186 ], [ 386657.925664463196881, 557182.392302471562289 ], [ 386707.399701204500161, 557172.94965451490134 ], [ 386775.971811684779823, 557162.845774193294346 ], [ 386821.224091581767425, 557158.269165849778801 ] ] ] } },
{ "type": "Feature", "properties": { "Names": null, "source": null, "target": null }, "geometry": { "type": "MultiLineString", "coordinates": [ [ [ 386894.743905473034829, 557573.592906539677642 ], [ 386920.108024842396844, 557564.924404168501496 ], [ 386948.983356614480726, 557558.171070161857642 ], [ 386973.514057914784644, 557556.554299568291754 ], [ 386993.318008030182682, 557568.755805222084746 ], [ 387011.141001380397938, 557579.382027963991277 ], [ 387034.911771443323232, 557597.890879418584518 ], [ 387055.908338557987008, 557613.641899788053706 ] ] ] } },
{ "type": "Feature", "properties": { "Names": null, "source": null, "target": null }, "geometry": { "type": "MultiLineString", "coordinates": [ [ [ 386626.702951475279406, 557684.818457849440165 ], [ 386704.894837969448417, 557690.383846432087012 ], [ 386709.923904280993156, 557701.161601269850507 ], [ 386718.909514032071456, 557711.670085547375493 ] ] ] } },
{ "type": "Feature", "properties": { "Names": null, "source": null, "target": null }, "geometry": { "type": "MultiLineString", "coordinates": [ [ [ 386620.344871103588957, 557746.625234728911892 ], [ 386655.072084777697455, 557754.737452307832427 ] ] ] } },
{ "type": "Feature", "properties": { "Names": null, "source": null, "target": null }, "geometry": { "type": "MultiLineString", "coordinates": [ [ [ 386620.344871103588957, 557746.625234728911892 ], [ 386601.094655936467461, 557746.32520805648528 ] ] ] } },
{ "type": "Feature", "properties": { "Names": null, "source": null, "target": null }, "geometry": { "type": "MultiLineString", "coordinates": [ [ [ 386617.73242248367751, 557873.70504551299382 ], [ 386634.593124085513409, 557873.813320523127913 ] ] ] } },
{ "type": "Feature", "properties": { "Names": null, "source": null, "target": null }, "geometry": { "type": "MultiLineString", "coordinates": [ [ [ 386618.954943124495912, 557936.469482155283913 ], [ 386578.902532280364539, 557962.585122964577749 ] ] ] } },
{ "type": "Feature", "properties": { "Names": null, "source": null, "target": null }, "geometry": { "type": "MultiLineString", "coordinates": [ [ [ 386882.30391442484688, 557061.138972275541164 ], [ 386909.459405483095907, 557041.062980784801766 ] ] ] } },
{ "type": "Feature", "properties": { "Names": null, "source": null, "target": null }, "geometry": { "type": "MultiLineString", "coordinates": [ [ [ 386998.716770690109115, 557043.997008225065656 ], [ 386991.615540310798679, 557019.259137033252046 ], [ 386973.121821243781596, 557001.531206089071929 ], [ 386966.492908684187569, 556979.838767934008501 ] ] ] } },
{ "type": "Feature", "properties": { "Names": null, "source": null, "target": null }, "geometry": { "type": "MultiLineString", "coordinates": [ [ [ 386991.615540310798679, 557019.259137033252046 ], [ 387085.26126288739033, 557017.139864061493427 ] ] ] } },
{ "type": "Feature", "properties": { "Names": null, "source": null, "target": null }, "geometry": { "type": "MultiLineString", "coordinates": [ [ [ 387061.232201816397719, 556815.680693195434287 ], [ 387076.799387056962587, 556792.956655782298185 ] ] ] } },
{ "type": "Feature", "properties": { "Names": null, "source": null, "target": null }, "geometry": { "type": "MultiLineString", "coordinates": [ [ [ 386213.31531218602322, 557477.19421384180896 ], [ 386191.975363771489356, 557435.980320907663554 ], [ 386172.785218374687247, 557394.906664782320149 ] ] ] } },
{ "type": "Feature", "properties": { "Names": null, "source": null, "target": null }, "geometry": { "type": "MultiLineString", "coordinates": [ [ [ 386239.031371308723465, 557264.220567987998948 ], [ 386208.309632753953338, 557261.910903894575313 ], [ 386194.450856202747673, 557256.013765047886409 ], [ 386188.099171308567747, 557243.002056769910268 ], [ 386186.882872679037973, 557224.457900928100571 ], [ 386183.702369060949422, 557214.99257465719711 ], [ 386180.302719366794918, 557199.03065839689225 ] ] ] } },
{ "type": "Feature", "properties": { "Names": null, "source": null, "target": null }, "geometry": { "type": "MultiLineString", "coordinates": [ [ [ 385912.744654758600518, 557371.166392265004106 ], [ 385918.225641931116115, 557390.232041121576913 ] ] ] } },
{ "type": "Feature", "properties": { "Names": null, "source": null, "target": null }, "geometry": { "type": "MultiLineString", "coordinates": [ [ [ 385924.611871978384443, 557368.780072475783527 ], [ 385911.100297500437591, 557337.244451125501655 ], [ 385894.192232375498861, 557321.487241695285775 ], [ 385886.195186052995268, 557268.886855093645863 ] ] ] } },
{ "type": "Feature", "properties": { "Names": null, "source": null, "target": null }, "geometry": { "type": "MultiLineString", "coordinates": [ [ [ 386628.939211076067295, 557037.175880871596746 ], [ 386645.713771101669408, 557073.418572316062637 ], [ 386670.802559227100573, 557091.136094677029178 ] ] ] } },
{ "type": "Feature", "properties": { "Names": null, "source": null, "target": null }, "geometry": { "type": "MultiLineString", "coordinates": [ [ [ 386436.203820405411534, 557019.858069026842713 ], [ 386414.101829436258413, 557041.425104429712519 ] ] ] } },
{ "type": "Feature", "properties": { "Names": null, "source": null, "target": null }, "geometry": { "type": "MultiLineString", "coordinates": [ [ [ 386478.628514698531944, 557072.899152469006367 ], [ 386466.397390566766262, 557081.591859528562054 ] ] ] } }
]
}
